[{"CCSDS_OMM_VERS":"2.0","COMMENT":"GENERATED VIA SPACE-TRACK.ORG API","CREATION_DATE":"2019-04-02T14:30:15","ORIGINATOR":"18 SPCS","OBJECT_NAME":"GALILEO-FM3","OBJECT_ID":"2012-055A","CENTER_NAME":"EARTH","REF_FRAME":"TEME","TIME_SYSTEM":"UTC","MEAN_ELEMENT_THEORY":"SGP4","EPOCH":"2019-04-02T07:07:28.880256","MEAN_MOTION":"1.70473852","ECCENTRICITY":"0.00039280","INCLINATION":"54.9236","RA_OF_ASC_NODE":"173.9617","ARG_OF_PERICENTER":"256.6112","MEAN_ANOMALY":"103.3909","EPHEMERIS_TYPE":"0","CLASSIFICATION_TYPE":"U","NORAD_CAT_ID":"38857","ELEMENT_SET_NO":"999","REV_AT_EPOCH":"4027","BSTAR":"0.00000000000000","MEAN_MOTION_DOT":"-0.00000004","MEAN_MOTION_DDOT":"0.0000000000000","SEMIMAJOR_AXIS":"29600.337","PERIOD":"844.704","APOAPSIS":"23233.829","PERIAPSIS":"23210.575","OBJECT_TYPE":"PAYLOAD","RCS_SIZE":"LARGE","COUNTRY_CODE":"ESA","LAUNCH_DATE":"2012-10-12","SITE":"FRGUI","DECAY_DATE":null,"FILE":"2436157","GP_ID":"128241870","TLE_LINE0":"0 GALILEO-FM3","TLE_LINE1":"1 38857U 12055A   19092.29686204 -.00000004  00000-0  00000+0 0  9996","TLE_LINE2":"2 38857  54.9236 173.9617 0003928 256.6112 103.3909  1.70473852 40276"},{"CCSDS_OMM_VERS":"2.0","COMMENT":"GENERATED VIA SPACE-TRACK.ORG API","CREATION_DATE":"2019-04-03T04:44:41","ORIGINATOR":"18 SPCS","OBJECT_NAME":"GALILEO-FM3","OBJECT_ID":"2012-055A","CENTER_NAME":"EARTH","REF_FRAME":"TEME","TIME_SYSTEM":"UTC","MEAN_ELEMENT_THEORY":"SGP4","EPOCH":"2019-04-02T07:07:28.880256","MEAN_MOTION":"1.70473852","ECCENTRICITY":"0.00039280","INCLINATION":"54.9236","RA_OF_ASC_NODE":"173.9617","ARG_OF_PERICENTER":"256.6112","MEAN_ANOMALY":"103.3909","EPHEMERIS_TYPE":"0","CLASSIFICATION_TYPE":"U","NORAD_CAT_ID":"38857","ELEMENT_SET_NO":"999","REV_AT_EPOCH":"4027","BSTAR":"0.00000000000000","MEAN_MOTION_DOT":"-0.00000004","MEAN_MOTION_DDOT":"0.0000000000000","SEMIMAJOR_AXIS":"29600.337","PERIOD":"844.704","APOAPSIS":"23233.829","PERIAPSIS":"23210.575","OBJECT_TYPE":"PAYLOAD","RCS_SIZE":"LARGE","COUNTRY_CODE":"ESA","LAUNCH_DATE":"2012-10-12","SITE":"FRGUI","DECAY_DATE":null,"FILE":"2436542","GP_ID":"128279954","TLE_LINE0":"0 GALILEO-FM3","TLE_LINE1":"1 38857U 12055A   19092.29686204 -.00000004 +00000-0 +00000-0 0  9997","TLE_LINE2":"2 38857 054.9236 173.9617 0003928 256.6112 103.3909 01.70473852040276"},{"CCSDS_OMM_VERS":"2.0","COMMENT":"GENERATED VIA SPACE-TRACK.ORG API","CREATION_DATE":"2019-04-04T04:57:54","ORIGINATOR":"18 SPCS","OBJECT_NAME":"GALILEO-FM3","OBJECT_ID":"2012-055A","CENTER_NAME":"EARTH","REF_FRAME":"TEME","TIME_SYSTEM":"UTC","MEAN_ELEMENT_THEORY":"SGP4","EPOCH":"2019-04-03T11:16:51.678912","MEAN_MOTION":"1.70473846","ECCENTRICITY":"0.00039570","INCLINATION":"54.9237","RA_OF_ASC_NODE":"173.9293","ARG_OF_PERICENTER":"256.7843","MEAN_ANOMALY":"103.2261","EPHEMERIS_TYPE":"0","CLASSIFICATION_TYPE":"U","NORAD_CAT_ID":"38857","ELEMENT_SET_NO":"999","REV_AT_EPOCH":"4029","BSTAR":"0.00000000000000","MEAN_MOTION_DOT":"0.00000006","MEAN_MOTION_DDOT":"0.0000000000000","SEMIMAJOR_AXIS":"29600.337","PERIOD":"844.704","APOAPSIS":"23233.915","PERIAPSIS":"23210.490","OBJECT_TYPE":"PAYLOAD","RCS_SIZE":"LARGE","COUNTRY_CODE":"ESA","LAUNCH_DATE":"2012-10-12","SITE":"FRGUI","DECAY_DATE":null,"FILE":"2437310","GP_ID":"128351385","TLE_LINE0":"0 GALILEO-FM3","TLE_LINE1":"1 38857U 12055A   19093.47004258 +.00000006 +00000-0 +00000-0 0  9992","TLE_LINE2":"2 38857 054.9237 173.9293 0003957 256.7843 103.2261 01.70473846040296"},{"CCSDS_OMM_VERS":"2.0","COMMENT":"GENERATED VIA SPACE-TRACK.ORG API","CREATION_DATE":"2019-04-06T17:33:37","ORIGINATOR":"18 SPCS","OBJECT_NAME":"GALILEO-FM3","OBJECT_ID":"2012-055A","CENTER_NAME":"EARTH","REF_FRAME":"TEME","TIME_SYSTEM":"UTC","MEAN_ELEMENT_THEORY":"SGP4","EPOCH":"2019-04-05T05:30:55.864800","MEAN_MOTION":"1.70473805","ECCENTRICITY":"0.00040300","INCLINATION":"54.9237","RA_OF_ASC_NODE":"173.8807","ARG_OF_PERICENTER":"257.1364","MEAN_ANOMALY":"102.8862","EPHEMERIS_TYPE":"0","CLASSIFICATION_TYPE":"U","NORAD_CAT_ID":"38857","ELEMENT_SET_NO":"999","REV_AT_EPOCH":"4032","BSTAR":"0.00000000000000","MEAN_MOTION_DOT":"0.00000020","MEAN_MOTION_DDOT":"0.0000000000000","SEMIMAJOR_AXIS":"29600.342","PERIOD":"844.704","APOAPSIS":"23234.136","PERIAPSIS":"23210.278","OBJECT_TYPE":"PAYLOAD","RCS_SIZE":"LARGE","COUNTRY_CODE":"ESA","LAUNCH_DATE":"2012-10-12","SITE":"FRGUI","DECAY_DATE":null,"FILE":"2439111","GP_ID":"128499974","TLE_LINE0":"0 GALILEO-FM3","TLE_LINE1":"1 38857U 12055A   19095.22981325 +.00000020 +00000-0 +00000-0 0  9992","TLE_LINE2":"2 38857 054.9237 173.8807 0004030 257.1364 102.8862 01.70473805040323"},{"CCSDS_OMM_VERS":"2.0","COMMENT":"GENERATED VIA SPACE-TRACK.ORG API","CREATION_DATE":"2019-04-05T06:24:16","ORIGINATOR":"18 SPCS","OBJECT_NAME":"GALILEO-FM3","OBJECT_ID":"2012-055A","CENTER_NAME":"EARTH","REF_FRAME":"TEME","TIME_SYSTEM":"UTC","MEAN_ELEMENT_THEORY":"SGP4","EPOCH":"2019-04-05T05:30:55.882080","MEAN_MOTION":"1.70473816","ECCENTRICITY":"0.00040090","INCLINATION":"54.9238","RA_OF_ASC_NODE":"173.8806","ARG_OF_PERICENTER":"257.0101","MEAN_ANOMALY":"103.0127","EPHEMERIS_TYPE":"0","CLASSIFICATION_TYPE":"U","NORAD_CAT_ID":"38857","ELEMENT_SET_NO":"999","REV_AT_EPOCH":"4032","BSTAR":"0.00000000000000","MEAN_MOTION_DOT":"0.00000020","MEAN_MOTION_DDOT":"0.0000000000000","SEMIMAJOR_AXIS":"29600.341","PERIOD":"844.704","APOAPSIS":"23234.073","PERIAPSIS":"23210.339","OBJECT_TYPE":"PAYLOAD","RCS_SIZE":"LARGE","COUNTRY_CODE":"ESA","LAUNCH_DATE":"2012-10-12","SITE":"FRGUI","DECAY_DATE":null,"FILE":"2438236","GP_ID":"128428280","TLE_LINE0":"0 GALILEO-FM3","TLE_LINE1":"1 38857U 12055A   19095.22981345  .00000020  00000-0  00000+0 0  9993","TLE_LINE2":"2 38857  54.9238 173.8806 0004009 257.0101 103.0127  1.70473816 40326"},{"CCSDS_OMM_VERS":"2.0","COMMENT":"GENERATED VIA SPACE-TRACK.ORG API","CREATION_DATE":"2019-04-09T14:24:16","ORIGINATOR":"18 SPCS","OBJECT_NAME":"GALILEO-FM3","OBJECT_ID":"2012-055A","CENTER_NAME":"EARTH","REF_FRAME":"TEME","TIME_SYSTEM":"UTC","MEAN_ELEMENT_THEORY":"SGP4","EPOCH":"2019-04-09T08:03:42.713856","MEAN_MOTION":"1.70473721","ECCENTRICITY":"0.00041660","INCLINATION":"54.9239","RA_OF_ASC_NODE":"173.7674","ARG_OF_PERICENTER":"258.0575","MEAN_ANOMALY":"101.9729","EPHEMERIS_TYPE":"0","CLASSIFICATION_TYPE":"U","NORAD_CAT_ID":"38857","ELEMENT_SET_NO":"999","REV_AT_EPOCH":"4039","BSTAR":"0.00000000000000","MEAN_MOTION_DOT":"0.00000033","MEAN_MOTION_DDOT":"0.0000000000000","SEMIMAJOR_AXIS":"29600.352","PERIOD":"844.704","APOAPSIS":"23234.548","PERIAPSIS":"23209.885","OBJECT_TYPE":"PAYLOAD","RCS_SIZE":"LARGE","COUNTRY_CODE":"ESA","LAUNCH_DATE":"2012-10-12","SITE":"FRGUI","DECAY_DATE":null,"FILE":"2440396","GP_ID":"128700689","TLE_LINE0":"0 GALILEO-FM3","TLE_LINE1":"1 38857U 12055A   19099.33591104  .00000033  00000-0  00000+0 0  9993","TLE_LINE2":"2 38857  54.9239 173.7674 0004166 258.0575 101.9729  1.70473721 40396"},{"CCSDS_OMM_VERS":"2.0","COMMENT":"GENERATED VIA SPACE-TRACK.ORG API","CREATION_DATE":"2019-04-15T03:45:12","ORIGINATOR":"18 SPCS","OBJECT_NAME":"GALILEO-FM3","OBJECT_ID":"2012-055A","CENTER_NAME":"EARTH","REF_FRAME":"TEME","TIME_SYSTEM":"UTC","MEAN_ELEMENT_THEORY":"SGP4","EPOCH":"2019-04-13T10:36:26.244288","MEAN_MOTION":"1.70473658","ECCENTRICITY":"0.00042950","INCLINATION":"54.9242","RA_OF_ASC_NODE":"173.6542","ARG_OF_PERICENTER":"259.1676","MEAN_ANOMALY":"100.8469","EPHEMERIS_TYPE":"0","CLASSIFICATION_TYPE":"U","NORAD_CAT_ID":"38857","ELEMENT_SET_NO":"999","REV_AT_EPOCH":"4046","BSTAR":"0.00000000000000","MEAN_MOTION_DOT":"0.00000015","MEAN_MOTION_DDOT":"0.0000000000000","SEMIMAJOR_AXIS":"29600.359","PERIOD":"844.705","APOAPSIS":"23234.938","PERIAPSIS":"23209.511","OBJECT_TYPE":"PAYLOAD","RCS_SIZE":"LARGE","COUNTRY_CODE":"ESA","LAUNCH_DATE":"2012-10-12","SITE":"FRGUI","DECAY_DATE":null,"FILE":"2443160","GP_ID":"129130671","TLE_LINE0":"0 GALILEO-FM3","TLE_LINE1":"1 38857U 12055A   19103.44197042 +.00000015 +00000-0 +00000-0 0  9995","TLE_LINE2":"2 38857 054.9242 173.6542 0004295 259.1676 100.8469 01.70473658040466"},{"CCSDS_OMM_VERS":"2.0","COMMENT":"GENERATED VIA SPACE-TRACK.ORG API","CREATION_DATE":"2019-04-13T14:24:16","ORIGINATOR":"18 SPCS","OBJECT_NAME":"GALILEO-FM3","OBJECT_ID":"2012-055A","CENTER_NAME":"EARTH","REF_FRAME":"TEME","TIME_SYSTEM":"UTC","MEAN_ELEMENT_THEORY":"SGP4","EPOCH":"2019-04-13T10:36:26.298720","MEAN_MOTION":"1.70473661","ECCENTRICITY":"0.00042780","INCLINATION":"54.9242","RA_OF_ASC_NODE":"173.6542","ARG_OF_PERICENTER":"259.0780","MEAN_ANOMALY":"100.9367","EPHEMERIS_TYPE":"0","CLASSIFICATION_TYPE":"U","NORAD_CAT_ID":"38857","ELEMENT_SET_NO":"999","REV_AT_EPOCH":"4046","BSTAR":"0.00000000000000","MEAN_MOTION_DOT":"0.00000015","MEAN_MOTION_DDOT":"0.0000000000000","SEMIMAJOR_AXIS":"29600.359","PERIOD":"844.705","APOAPSIS":"23234.887","PERIAPSIS":"23209.561","OBJECT_TYPE":"PAYLOAD","RCS_SIZE":"LARGE","COUNTRY_CODE":"ESA","LAUNCH_DATE":"2012-10-12","SITE":"FRGUI","DECAY_DATE":null,"FILE":"2442367","GP_ID":"129005399","TLE_LINE0":"0 GALILEO-FM3","TLE_LINE1":"1 38857U 12055A   19103.44197105  .00000015  00000-0  00000+0 0  9994","TLE_LINE2":"2 38857  54.9242 173.6542 0004278 259.0780 100.9367  1.70473661 40464"}]